STARLINK-36466          
1 67358U 26003AA  26037.35324920  .00113938  00000+0  19150-2 0  9998
2 67358  42.9994  44.7066 0001807 246.2430 113.8241 15.50649243  4027
STARLINK-36499          
1 67359U 26003AB  26037.91671296 -.02017169  00000+0 -54635-1 0  9991
2 67359  43.0006  41.5068 0000967 275.4352 315.2171 15.40510348  5735
STARLINK-36469          
1 67360U 26003AC  26037.91671296 -.02010760  00000+0 -51513-1 0  9995
2 67360  43.0004  41.4729 0000726 274.6493 330.0690 15.42154234  5739
STARLINK-35306          
1 67361U 26003AD  26037.93197102  .00141088  00000+0  23661-2 0  9995
2 67361  43.0005  41.3091 0001855 246.9659 113.1006 15.50597044  4113
STARLINK-36428          
1 67362U 26003AE  26037.35188163  .00136095  00000+0  22777-2 0  9998
2 67362  42.9992  44.6940 0001459 269.2639  90.8054 15.50675667  4024
TWILIGHT A              
1 67363U 26004A   26037.99273780  .00006156  00000+0  69181-3 0  9995
2 67363  97.8003  38.6829 0008233 198.7036 161.3879 14.87056675  3928
TWILIGHT B              
1 67364U 26004B   26037.99096209  .00006736  00000+0  75383-3 0  9990
2 67364  97.8006  38.6857 0008180 194.2191 165.8796 14.87190714  3938
TWILIGHT C              
1 67365U 26004C   26037.99058975  .00006767  00000+0  75695-3 0  9999
2 67365  97.7983  38.6817 0007765 199.4768 160.6153 14.87211747  3933
TWILIGHT D              
1 67366U 26004D   26037.92313145  .00004678  00000+0  52603-3 0  9999
2 67366  97.8039  38.6263 0008348 188.5155 171.5921 14.87151917  3924
TWILIGHT E              
1 67367U 26004E   26037.98855231  .00006451  00000+0  71986-3 0  9999
2 67367  97.7969  38.6820 0007210 200.9028 159.1894 14.87330764  3931
TWILIGHT F              
1 67368U 26004F   26037.98792156  .00006239  00000+0  69598-3 0  9996
2 67368  97.8030  38.6947 0007705 189.3545 170.7529 14.87353492  3932
TWILIGHT G              
1 67369U 26004G   26037.98742066  .00003164  00000+0  35664-3 0  9993
2 67369  97.7962  38.6822 0006581 202.9955 157.0967 14.87286983  3930
