CCSDS_OMM_VERS = 2.0
CREATION_DATE  = 
ORIGINATOR     = 

OBJECT_NAME    = STARLINK-36466
OBJECT_ID      = 2026-003AA
CENTER_NAME    = EARTH
REF_FRAME      = TEME
TIME_SYSTEM    = UTC
MEAN_ELEMENT_THEORY = SGP/SGP4

EPOCH          = 2026-02-06T08:28:40.730880
MEAN_MOTION    = 15.50649243
ECCENTRICITY   = .00018077
INCLINATION    = 42.9994
RA_OF_ASC_NODE = 44.7066
ARG_OF_PERICENTER = 246.2430
MEAN_ANOMALY   = 113.8241

EPHEMERIS_TYPE = 0
CLASSIFICATION_TYPE = U
NORAD_CAT_ID   = 67358
ELEMENT_SET_NO = 999
REV_AT_EPOCH   = 402
BSTAR          = .19150101E-2
MEAN_MOTION_DOT = .113938E-2
MEAN_MOTION_DDOT = 0

CCSDS_OMM_VERS = 2.0
CREATION_DATE  = 
ORIGINATOR     = 

OBJECT_NAME    = STARLINK-36499
OBJECT_ID      = 2026-003AB
CENTER_NAME    = EARTH
REF_FRAME      = TEME
TIME_SYSTEM    = UTC
MEAN_ELEMENT_THEORY = SGP/SGP4

EPOCH          = 2026-02-06T22:00:03.999744
MEAN_MOTION    = 15.40510348
ECCENTRICITY   = .00009673
INCLINATION    = 43.0006
RA_OF_ASC_NODE = 41.5068
ARG_OF_PERICENTER = 275.4352
MEAN_ANOMALY   = 315.2171

EPHEMERIS_TYPE = 0
CLASSIFICATION_TYPE = U
NORAD_CAT_ID   = 67359
ELEMENT_SET_NO = 999
REV_AT_EPOCH   = 573
BSTAR          = -.5463492E-1
MEAN_MOTION_DOT = -.2017169E-1
MEAN_MOTION_DDOT = 0

CCSDS_OMM_VERS = 2.0
CREATION_DATE  = 
ORIGINATOR     = 

OBJECT_NAME    = STARLINK-36469
OBJECT_ID      = 2026-003AC
CENTER_NAME    = EARTH
REF_FRAME      = TEME
TIME_SYSTEM    = UTC
MEAN_ELEMENT_THEORY = SGP/SGP4

EPOCH          = 2026-02-06T22:00:03.999744
MEAN_MOTION    = 15.42154234
ECCENTRICITY   = .00007261
INCLINATION    = 43.0004
RA_OF_ASC_NODE = 41.4729
ARG_OF_PERICENTER = 274.6493
MEAN_ANOMALY   = 330.0690

EPHEMERIS_TYPE = 0
CLASSIFICATION_TYPE = U
NORAD_CAT_ID   = 67360
ELEMENT_SET_NO = 999
REV_AT_EPOCH   = 573
BSTAR          = -.51513181E-1
MEAN_MOTION_DOT = -.201076E-1
MEAN_MOTION_DDOT = 0

CCSDS_OMM_VERS = 2.0
CREATION_DATE  = 
ORIGINATOR     = 

OBJECT_NAME    = STARLINK-35306
OBJECT_ID      = 2026-003AD
CENTER_NAME    = EARTH
REF_FRAME      = TEME
TIME_SYSTEM    = UTC
MEAN_ELEMENT_THEORY = SGP/SGP4

EPOCH          = 2026-02-06T22:22:02.296128
MEAN_MOTION    = 15.50597044
ECCENTRICITY   = .00018551
INCLINATION    = 43.0005
RA_OF_ASC_NODE = 41.3091
ARG_OF_PERICENTER = 246.9659
MEAN_ANOMALY   = 113.1006

EPHEMERIS_TYPE = 0
CLASSIFICATION_TYPE = U
NORAD_CAT_ID   = 67361
ELEMENT_SET_NO = 999
REV_AT_EPOCH   = 411
BSTAR          = .23661114E-2
MEAN_MOTION_DOT = .141088E-2
MEAN_MOTION_DDOT = 0

CCSDS_OMM_VERS = 2.0
CREATION_DATE  = 
ORIGINATOR     = 

OBJECT_NAME    = STARLINK-36428
OBJECT_ID      = 2026-003AE
CENTER_NAME    = EARTH
REF_FRAME      = TEME
TIME_SYSTEM    = UTC
MEAN_ELEMENT_THEORY = SGP/SGP4

EPOCH          = 2026-02-06T08:26:42.572832
MEAN_MOTION    = 15.50675667
ECCENTRICITY   = .00014596
INCLINATION    = 42.9992
RA_OF_ASC_NODE = 44.6940
ARG_OF_PERICENTER = 269.2639
MEAN_ANOMALY   = 90.8054

EPHEMERIS_TYPE = 0
CLASSIFICATION_TYPE = U
NORAD_CAT_ID   = 67362
ELEMENT_SET_NO = 999
REV_AT_EPOCH   = 402
BSTAR          = .22776907E-2
MEAN_MOTION_DOT = .136095E-2
MEAN_MOTION_DDOT = 0

CCSDS_OMM_VERS = 2.0
CREATION_DATE  = 
ORIGINATOR     = 

OBJECT_NAME    = TWILIGHT A
OBJECT_ID      = 2026-004A
CENTER_NAME    = EARTH
REF_FRAME      = TEME
TIME_SYSTEM    = UTC
MEAN_ELEMENT_THEORY = SGP/SGP4

EPOCH          = 2026-02-06T23:49:32.545920
MEAN_MOTION    = 14.87056675
ECCENTRICITY   = .0008233
INCLINATION    = 97.8003
RA_OF_ASC_NODE = 38.6829
ARG_OF_PERICENTER = 198.7036
MEAN_ANOMALY   = 161.3879

EPHEMERIS_TYPE = 0
CLASSIFICATION_TYPE = U
NORAD_CAT_ID   = 67363
ELEMENT_SET_NO = 999
REV_AT_EPOCH   = 392
BSTAR          = .69181099E-3
MEAN_MOTION_DOT = .6156E-4
MEAN_MOTION_DDOT = 0

CCSDS_OMM_VERS = 2.0
CREATION_DATE  = 
ORIGINATOR     = 

OBJECT_NAME    = TWILIGHT B
OBJECT_ID      = 2026-004B
CENTER_NAME    = EARTH
REF_FRAME      = TEME
TIME_SYSTEM    = UTC
MEAN_ELEMENT_THEORY = SGP/SGP4

EPOCH          = 2026-02-06T23:46:59.124576
MEAN_MOTION    = 14.87190714
ECCENTRICITY   = .00081806
INCLINATION    = 97.8006
RA_OF_ASC_NODE = 38.6857
ARG_OF_PERICENTER = 194.2191
MEAN_ANOMALY   = 165.8796

EPHEMERIS_TYPE = 0
CLASSIFICATION_TYPE = U
NORAD_CAT_ID   = 67364
ELEMENT_SET_NO = 999
REV_AT_EPOCH   = 393
BSTAR          = .75382638E-3
MEAN_MOTION_DOT = .6736E-4
MEAN_MOTION_DDOT = 0

CCSDS_OMM_VERS = 2.0
CREATION_DATE  = 
ORIGINATOR     = 

OBJECT_NAME    = TWILIGHT C
OBJECT_ID      = 2026-004C
CENTER_NAME    = EARTH
REF_FRAME      = TEME
TIME_SYSTEM    = UTC
MEAN_ELEMENT_THEORY = SGP/SGP4

EPOCH          = 2026-02-06T23:46:26.954400
MEAN_MOTION    = 14.87211747
ECCENTRICITY   = .00077654
INCLINATION    = 97.7983
RA_OF_ASC_NODE = 38.6817
ARG_OF_PERICENTER = 199.4768
MEAN_ANOMALY   = 160.6153

EPHEMERIS_TYPE = 0
CLASSIFICATION_TYPE = U
NORAD_CAT_ID   = 67365
ELEMENT_SET_NO = 999
REV_AT_EPOCH   = 393
BSTAR          = .75694758E-3
MEAN_MOTION_DOT = .6767E-4
MEAN_MOTION_DDOT = 0

CCSDS_OMM_VERS = 2.0
CREATION_DATE  = 
ORIGINATOR     = 

OBJECT_NAME    = TWILIGHT D
OBJECT_ID      = 2026-004D
CENTER_NAME    = EARTH
REF_FRAME      = TEME
TIME_SYSTEM    = UTC
MEAN_ELEMENT_THEORY = SGP/SGP4

EPOCH          = 2026-02-06T22:09:18.557280
MEAN_MOTION    = 14.87151917
ECCENTRICITY   = .0008348
INCLINATION    = 97.8039
RA_OF_ASC_NODE = 38.6263
ARG_OF_PERICENTER = 188.5155
MEAN_ANOMALY   = 171.5921

EPHEMERIS_TYPE = 0
CLASSIFICATION_TYPE = U
NORAD_CAT_ID   = 67366
ELEMENT_SET_NO = 999
REV_AT_EPOCH   = 392
BSTAR          = .52603438E-3
MEAN_MOTION_DOT = .4678E-4
MEAN_MOTION_DDOT = 0

CCSDS_OMM_VERS = 2.0
CREATION_DATE  = 
ORIGINATOR     = 

OBJECT_NAME    = TWILIGHT E
OBJECT_ID      = 2026-004E
CENTER_NAME    = EARTH
REF_FRAME      = TEME
TIME_SYSTEM    = UTC
MEAN_ELEMENT_THEORY = SGP/SGP4

EPOCH          = 2026-02-06T23:43:30.919584
MEAN_MOTION    = 14.87330764
ECCENTRICITY   = .000721
INCLINATION    = 97.7969
RA_OF_ASC_NODE = 38.6820
ARG_OF_PERICENTER = 200.9028
MEAN_ANOMALY   = 159.1894

EPHEMERIS_TYPE = 0
CLASSIFICATION_TYPE = U
NORAD_CAT_ID   = 67367
ELEMENT_SET_NO = 999
REV_AT_EPOCH   = 393
BSTAR          = .71986025E-3
MEAN_MOTION_DOT = .6451E-4
MEAN_MOTION_DDOT = 0

CCSDS_OMM_VERS = 2.0
CREATION_DATE  = 
ORIGINATOR     = 

OBJECT_NAME    = TWILIGHT F
OBJECT_ID      = 2026-004F
CENTER_NAME    = EARTH
REF_FRAME      = TEME
TIME_SYSTEM    = UTC
MEAN_ELEMENT_THEORY = SGP/SGP4

EPOCH          = 2026-02-06T23:42:36.422784
MEAN_MOTION    = 14.87353492
ECCENTRICITY   = .00077056
INCLINATION    = 97.8030
RA_OF_ASC_NODE = 38.6947
ARG_OF_PERICENTER = 189.3545
MEAN_ANOMALY   = 170.7529

EPHEMERIS_TYPE = 0
CLASSIFICATION_TYPE = U
NORAD_CAT_ID   = 67368
ELEMENT_SET_NO = 999
REV_AT_EPOCH   = 393
BSTAR          = .69597907E-3
MEAN_MOTION_DOT = .6239E-4
MEAN_MOTION_DDOT = 0

CCSDS_OMM_VERS = 2.0
CREATION_DATE  = 
ORIGINATOR     = 

OBJECT_NAME    = TWILIGHT G
OBJECT_ID      = 2026-004G
CENTER_NAME    = EARTH
REF_FRAME      = TEME
TIME_SYSTEM    = UTC
MEAN_ELEMENT_THEORY = SGP/SGP4

EPOCH          = 2026-02-06T23:41:53.145024
MEAN_MOTION    = 14.87286983
ECCENTRICITY   = .00065813
INCLINATION    = 97.7962
RA_OF_ASC_NODE = 38.6822
ARG_OF_PERICENTER = 202.9955
MEAN_ANOMALY   = 157.0967

EPHEMERIS_TYPE = 0
CLASSIFICATION_TYPE = U
NORAD_CAT_ID   = 67369
ELEMENT_SET_NO = 999
REV_AT_EPOCH   = 393
BSTAR          = .35663996E-3
MEAN_MOTION_DOT = .3164E-4
MEAN_MOTION_DDOT = 0

